start=new Date('2021-12-19T00:00:00.000Z').valueOf();
sats=[{"SITE":"AFETR","CENTER_NAME":"EARTH","EPOCH":"2021-12-18T20:13:07.534848","REF_FRAME":"TEME","REV_AT_EPOCH":"8547","MEAN_MOTION":"15.06397293","GP_ID":"191946553","LAUNCH_DATE":"2020-06-13","RCS_SIZE":"LARGE","ELEMENT_SET_NO":"999","MEAN_ANOMALY":"292.3487","RA_OF_ASC_NODE":"278.2442","NORAD_CAT_ID":"45778","FILE":"3243785","OBJECT_ID":"2020-038BA","BSTAR":"0.00006061600000","TIME_SYSTEM":"UTC","PERIAPSIS":"545.740","TLE_LINE2":"2 45778  53.0538 278.2442 0002140  67.7729 292.3487 15.06397293 85475","CLASSIFICATION_TYPE":"U","OBJECT_TYPE":"PAYLOAD","SEMIMAJOR_AXIS":"6925.357","TLE_LINE1":"1 45778U 20038BA  21352.84244832  .00000621  00000-0  60616-4 0  9994","OBJECT_NAME":"STARLINK-1491","DECAY_DATE":null,"INCLINATION":"53.0538","MEAN_MOTION_DDOT":"0.0000000000000","COUNTRY_CODE":"US","ECCENTRICITY":"0.00021400","PERIOD":"95.592","MEAN_ELEMENT_THEORY":"SGP4","ARG_OF_PERICENTER":"67.7729","EPHEMERIS_TYPE":"0","MEAN_MOTION_DOT":"0.00000621","APOAPSIS":"548.704"},{"ELEMENT_SET_NO":"999","RCS_SIZE":"LARGE","LAUNCH_DATE":"2020-06-13","GP_ID":"191939931","MEAN_MOTION":"15.06395263","REF_FRAME":"TEME","EPOCH":"2021-12-18T12:10:06.913344","REV_AT_EPOCH":"8430","CENTER_NAME":"EARTH","SITE":"AFETR","OBJECT_NAME":"STARLINK-1492","TLE_LINE1":"1 45779U 20038BB  21352.50702446 -.00000138  00000-0  96621-5 0  9998","CLASSIFICATION_TYPE":"U","OBJECT_TYPE":"PAYLOAD","SEMIMAJOR_AXIS":"6925.363","PERIAPSIS":"545.620","TLE_LINE2":"2 45779  53.0536 279.7554 0002322  69.3714 290.7524 15.06395263 84308","TIME_SYSTEM":"UTC","FILE":"3243681","BSTAR":"0.00000966210000","OBJECT_ID":"2020-038BB","NORAD_CAT_ID":"45779","RA_OF_ASC_NODE":"279.7554","MEAN_ANOMALY":"290.7524","COUNTRY_CODE":"US","MEAN_MOTION_DDOT":"0.0000000000000","INCLINATION":"53.0536","DECAY_DATE":null,"APOAPSIS":"548.836","MEAN_MOTION_DOT":"-0.00000138","EPHEMERIS_TYPE":"0","ARG_OF_PERICENTER":"69.3714","MEAN_ELEMENT_THEORY":"SGP4","PERIOD":"95.592","ECCENTRICITY":"0.00023220"},{"APOAPSIS":"548.672","EPHEMERIS_TYPE":"0","MEAN_MOTION_DOT":"-0.00003551","ARG_OF_PERICENTER":"69.3490","PERIOD":"95.592","MEAN_ELEMENT_THEORY":"SGP4","ECCENTRICITY":"0.00021110","COUNTRY_CODE":"US","MEAN_MOTION_DDOT":"0.0000000000000","INCLINATION":"53.0550","DECAY_DATE":null,"TLE_LINE1":"1 45780U 20038BC  21352.51808299 -.00003551  00000-0 -21956-3 0  9994","OBJECT_NAME":"STARLINK-1496","SEMIMAJOR_AXIS":"6925.345","OBJECT_TYPE":"PAYLOAD","CLASSIFICATION_TYPE":"U","TIME_SYSTEM":"UTC","TLE_LINE2":"2 45780  53.0550 279.7068 0002111  69.3490 290.7725 15.06401280 84303","PERIAPSIS":"545.748","FILE":"3243681","BSTAR":"-0.00021956000000","OBJECT_ID":"2020-038BC","RA_OF_ASC_NODE":"279.7068","NORAD_CAT_ID":"45780","MEAN_ANOMALY":"290.7725","LAUNCH_DATE":"2020-06-13","ELEMENT_SET_NO":"999","RCS_SIZE":"LARGE","GP_ID":"191940181","EPOCH":"2021-12-18T12:26:02.370336","REF_FRAME":"TEME","REV_AT_EPOCH":"8430","MEAN_MOTION":"15.06401280","CENTER_NAME":"EARTH","SITE":"AFETR"},{"GP_ID":"191940933","ELEMENT_SET_NO":"999","RCS_SIZE":"LARGE","LAUNCH_DATE":"2020-06-13","SITE":"AFETR","CENTER_NAME":"EARTH","MEAN_MOTION":"15.06394383","EPOCH":"2021-12-18T06:41:02.084640","REV_AT_EPOCH":"8427","REF_FRAME":"TEME","TLE_LINE2":"2 45781  53.0549 280.7813 0001970  60.7050 299.4135 15.06394383 84273","PERIAPSIS":"545.866","TIME_SYSTEM":"UTC","CLASSIFICATION_TYPE":"U","OBJECT_TYPE":"PAYLOAD","SEMIMAJOR_AXIS":"6925.366","OBJECT_NAME":"STARLINK-1497","TLE_LINE1":"1 45781U 20038BD  21352.27849635 -.00001789  00000-0 -10124-3 0  9993","MEAN_ANOMALY":"299.4135","NORAD_CAT_ID":"45781","RA_OF_ASC_NODE":"280.7813","FILE":"3243681","BSTAR":"-0.00010124000000","OBJECT_ID":"2020-038BD","MEAN_MOTION_DDOT":"0.0000000000000","COUNTRY_CODE":"US","DECAY_DATE":null,"INCLINATION":"53.0549","MEAN_MOTION_DOT":"-0.00001789","EPHEMERIS_TYPE":"0","APOAPSIS":"548.595","ECCENTRICITY":"0.00019700","MEAN_ELEMENT_THEORY":"SGP4","PERIOD":"95.592","ARG_OF_PERICENTER":"60.7050"},{"RA_OF_ASC_NODE":"278.4275","NORAD_CAT_ID":"45782","MEAN_ANOMALY":"297.6553","FILE":"3243770","BSTAR":"0.00013308000000","OBJECT_ID":"2020-038BE","CLASSIFICATION_TYPE":"U","OBJECT_TYPE":"PAYLOAD","SEMIMAJOR_AXIS":"6925.335","TIME_SYSTEM":"UTC","PERIAPSIS":"545.569","TLE_LINE2":"2 45782  53.0546 278.4275 0002355  62.4675 297.6553 15.06404586 85280","TLE_LINE1":"1 45782U 20038BE  21352.80189570  .00001701  00000-0  13308-3 0  9997","OBJECT_NAME":"STARLINK-1498","SITE":"AFETR","REV_AT_EPOCH":"8528","REF_FRAME":"TEME","EPOCH":"2021-12-18T19:14:43.788480","MEAN_MOTION":"15.06404586","CENTER_NAME":"EARTH","GP_ID":"191946699","LAUNCH_DATE":"2020-06-13","RCS_SIZE":"LARGE","ELEMENT_SET_NO":"999","ECCENTRICITY":"0.00023550","ARG_OF_PERICENTER":"62.4675","PERIOD":"95.592","MEAN_ELEMENT_THEORY":"SGP4","APOAPSIS":"548.830","EPHEMERIS_TYPE":"0","MEAN_MOTION_DOT":"0.00001701","DECAY_DATE":null,"INCLINATION":"53.0546","COUNTRY_CODE":"US","MEAN_MOTION_DDOT":"0.0000000000000"},{"INCLINATION":"53.0542","DECAY_DATE":null,"MEAN_MOTION_DDOT":"0.0000000000000","COUNTRY_CODE":"US","MEAN_ELEMENT_THEORY":"SGP4","PERIOD":"95.592","ARG_OF_PERICENTER":"67.3933","ECCENTRICITY":"0.00021890","MEAN_MOTION_DOT":"0.00000549","EPHEMERIS_TYPE":"0","APOAPSIS":"548.730","CENTER_NAME":"EARTH","MEAN_MOTION":"15.06399816","REV_AT_EPOCH":"8428","EPOCH":"2021-12-18T06:35:44.364192","REF_FRAME":"TEME","SITE":"AFETR","ELEMENT_SET_NO":"999","RCS_SIZE":"LARGE","LAUNCH_DATE":"2020-06-13","GP_ID":"191939432","BSTAR":"0.00005575800000","FILE":"3243681","OBJECT_ID":"2020-038BF","MEAN_ANOMALY":"292.7287","NORAD_CAT_ID":"45783","RA_OF_ASC_NODE":"280.7770","TLE_LINE1":"1 45783U 20038BF  21352.27481903  .00000549  00000-0  55758-4 0  9999","OBJECT_NAME":"STARLINK-1505","TLE_LINE2":"2 45783  53.0542 280.7770 0002189  67.3933 292.7287 15.06399816 84287","PERIAPSIS":"545.698","TIME_SYSTEM":"UTC","SEMIMAJOR_AXIS":"6925.349","OBJECT_TYPE":"PAYLOAD","CLASSIFICATION_TYPE":"U"},{"REV_AT_EPOCH":"8431","EPOCH":"2021-12-18T12:20:43.912032","REF_FRAME":"TEME","MEAN_MOTION":"15.06393543","CENTER_NAME":"EARTH","SITE":"AFETR","LAUNCH_DATE":"2020-06-13","RCS_SIZE":"LARGE","ELEMENT_SET_NO":"999","GP_ID":"191939682","BSTAR":"0.00000314580000","FILE":"3243681","OBJECT_ID":"2020-038BG","NORAD_CAT_ID":"45784","RA_OF_ASC_NODE":"279.7241","MEAN_ANOMALY":"293.5527","OBJECT_NAME":"STARLINK-1510","TLE_LINE1":"1 45784U 20038BG  21352.51439713 -.00000235  00000-0  31458-5 0  9994","SEMIMAJOR_AXIS":"6925.368","OBJECT_TYPE":"PAYLOAD","CLASSIFICATION_TYPE":"U","TIME_SYSTEM":"UTC","TLE_LINE2":"2 45784  53.0556 279.7241 0002288  66.5702 293.5527 15.06393543 84310","PERIAPSIS":"545.649","INCLINATION":"53.0556","DECAY_DATE":null,"COUNTRY_CODE":"US","MEAN_MOTION_DDOT":"0.0000000000000","ARG_OF_PERICENTER":"66.5702","PERIOD":"95.593","MEAN_ELEMENT_THEORY":"SGP4","ECCENTRICITY":"0.00022880","APOAPSIS":"548.818","EPHEMERIS_TYPE":"0","MEAN_MOTION_DOT":"-0.00000235"},{"TLE_LINE2":"2 45785  53.0534 279.7965 0002364  66.5529 293.5708 15.06393588 84312","PERIAPSIS":"545.596","TIME_SYSTEM":"UTC","OBJECT_TYPE":"PAYLOAD","CLASSIFICATION_TYPE":"U","SEMIMAJOR_AXIS":"6925.368","TLE_LINE1":"1 45785U 20038BH  21352.49596779 -.00001487  00000-0 -80938-4 0  9995","OBJECT_NAME":"STARLINK-1512","MEAN_ANOMALY":"293.5708","NORAD_CAT_ID":"45785","RA_OF_ASC_NODE":"279.7965","BSTAR":"-0.00008093800000","FILE":"3243681","OBJECT_ID":"2020-038BH","GP_ID":"191940434","ELEMENT_SET_NO":"999","RCS_SIZE":"LARGE","LAUNCH_DATE":"2020-06-13","SITE":"AFETR","CENTER_NAME":"EARTH","MEAN_MOTION":"15.06393588","EPOCH":"2021-12-18T11:54:11.617056","REV_AT_EPOCH":"8431","REF_FRAME":"TEME","MEAN_MOTION_DOT":"-0.00001487","EPHEMERIS_TYPE":"0","APOAPSIS":"548.870","ECCENTRICITY":"0.00023640","MEAN_ELEMENT_THEORY":"SGP4","PERIOD":"95.593","ARG_OF_PERICENTER":"66.5529","MEAN_MOTION_DDOT":"0.0000000000000","COUNTRY_CODE":"US","DECAY_DATE":null,"INCLINATION":"53.0534"},{"DECAY_DATE":null,"INCLINATION":"53.0542","MEAN_MOTION_DDOT":"0.0000000000000","COUNTRY_CODE":"US","ECCENTRICITY":"0.00021660","PERIOD":"95.592","MEAN_ELEMENT_THEORY":"SGP4","ARG_OF_PERICENTER":"70.0181","EPHEMERIS_TYPE":"0","MEAN_MOTION_DOT":"0.00000665","APOAPSIS":"548.724","SITE":"AFETR","CENTER_NAME":"EARTH","EPOCH":"2021-12-18T05:10:48.163008","REF_FRAME":"TEME","REV_AT_EPOCH":"8427","MEAN_MOTION":"15.06396645","GP_ID":"191941184","LAUNCH_DATE":"2020-06-13","RCS_SIZE":"LARGE","ELEMENT_SET_NO":"999","MEAN_ANOMALY":"290.1041","NORAD_CAT_ID":"45786","RA_OF_ASC_NODE":"281.0481","OBJECT_ID":"2020-038BJ","FILE":"3243681","BSTAR":"0.00006354900000","TIME_SYSTEM":"UTC","PERIAPSIS":"545.724","TLE_LINE2":"2 45786  53.0542 281.0481 0002166  70.0181 290.1041 15.06396645 84270","OBJECT_TYPE":"PAYLOAD","CLASSIFICATION_TYPE":"U","SEMIMAJOR_AXIS":"6925.359","OBJECT_NAME":"STARLINK-1513","TLE_LINE1":"1 45786U 20038BJ  21352.21583522  .00000665  00000-0  63549-4 0  9992"},{"COUNTRY_CODE":"US","MEAN_MOTION_DDOT":"0.0000000000000","INCLINATION":"53.0554","DECAY_DATE":null,"APOAPSIS":"548.791","MEAN_MOTION_DOT":"0.00001036","EPHEMERIS_TYPE":"0","ARG_OF_PERICENTER":"65.9649","MEAN_ELEMENT_THEORY":"SGP4","PERIOD":"95.592","ECCENTRICITY":"0.00022770","ELEMENT_SET_NO":"999","RCS_SIZE":"LARGE","LAUNCH_DATE":"2020-06-13","GP_ID":"191946706","MEAN_MOTION":"15.06399975","REV_AT_EPOCH":"8528","EPOCH":"2021-12-18T19:41:15.937440","REF_FRAME":"TEME","CENTER_NAME":"EARTH","SITE":"AFETR","OBJECT_NAME":"STARLINK-1517","TLE_LINE1":"1 45787U 20038BK  21352.82032335  .00001036  00000-0  88456-4 0  9998","CLASSIFICATION_TYPE":"U","OBJECT_TYPE":"PAYLOAD","SEMIMAJOR_AXIS":"6925.349","PERIAPSIS":"545.637","TLE_LINE2":"2 45787  53.0554 278.3434 0002277  65.9649 294.1578 15.06399975 85286","TIME_SYSTEM":"UTC","BSTAR":"0.00008845600000","FILE":"3243778","OBJECT_ID":"2020-038BK","RA_OF_ASC_NODE":"278.3434","NORAD_CAT_ID":"45787","MEAN_ANOMALY":"294.1578"}];
